     2.11           N: GPS NAV DATA                         RINEX VERSION / TYPE
teqc  2018Dec12     gpsops              20220529 01:03:48UTCPGM / RUN BY / DATE
Linux 2.6.32-573.12.1.x86_64|x86_64|gcc -static|Linux 64|=+ COMMENT
CHPI                                    MARKER NAME         COMMENT
41609M003                               MARKER NUMBER       COMMENT
4164613.9484 -4162456.9866 -2445028.7316                    COMMENT
This data is provided as a public service by NASA/JPL.      COMMENT
No warranty is expressed or implied regarding suitability   COMMENT
for use.  For further information, contact:                 COMMENT
ggnops at jpl dot nasa dot gov                              COMMENT
                                                            END OF HEADER
14 22  5 28 18  0  0.0-1.100637018681D-04-1.250555214938D-12 0.000000000000D+00
    2.300000000000D+01 1.243750000000D+02 4.638407494005D-09 1.884653208742D-01
    6.519258022308D-06 1.929748686962D-03 6.156042218208D-06 5.153665164948D+03
    5.832000000000D+05 5.774199962616D-08 5.470274008355D-01-1.676380634308D-08
    9.529268941444D-01 2.573750000000D+02 3.115812926869D+00-8.227485564941D-09
    3.871589838686D-10 1.000000000000D+00 2.211000000000D+03 0.000000000000D+00
    2.000000000000D+00 0.000000000000D+00-7.916241884232D-09 5.350000000000D+02
    5.760180000000D+05 4.000000000000D+00
 8 22  5 28 18  0  0.0-6.984220817685D-05-1.477928890381D-12 0.000000000000D+00
    6.200000000000D+01-2.156250000000D+01 4.847701926243D-09-2.614637888814D+00
   -1.162290573120D-06 7.435550214723D-03 1.089647412300D-06 5.153766532898D+03
    5.832000000000D+05-1.434236764908D-07 1.534746037407D+00-1.601874828339D-07
    9.632646530278D-01 3.632187500000D+02 1.703546744703D-01-8.376777497835D-09
   -1.357199389945D-11 1.000000000000D+00 2.211000000000D+03 0.000000000000D+00
    2.000000000000D+00 0.000000000000D+00 5.122274160385D-09 6.200000000000D+01
    5.760180000000D+05 4.000000000000D+00
11 22  5 28 18  0  0.0-1.983996480703D-05 3.751665644813D-12 0.000000000000D+00
    1.220000000000D+02-1.164687500000D+02 4.288392914492D-09-2.605579823372D+00
   -6.061047315598D-06 3.995802253485D-04 9.778887033463D-06 5.153585206985D+03
    5.832000000000D+05-2.980232238770D-08 2.658602857595D+00 5.587935447693D-09
    9.631786144268D-01 1.906875000000D+02 2.819107801190D+00-7.872827934884D-09
   -1.889364413897D-10 1.000000000000D+00 2.211000000000D+03 0.000000000000D+00
    2.000000000000D+00 0.000000000000D+00-8.381903171539D-09 3.780000000000D+02
    5.760180000000D+05 4.000000000000D+00
27 22  5 28 17 59 44.0 2.094213850796D-04 4.888534022029D-12 0.000000000000D+00
    4.200000000000D+01-2.209375000000D+01 4.629478550650D-09-2.573897498694D+00
   -1.318752765656D-06 1.053955429234D-02 1.091510057449D-06 5.153656486511D+03
    5.831840000000D+05 1.247972249985D-07 1.555033015835D+00-2.644956111908D-07
    9.720008779552D-01 3.646875000000D+02 6.846873703544D-01-8.279273436399D-09
    3.428714248282D-11 1.000000000000D+00 2.211000000000D+03 0.000000000000D+00
    2.000000000000D+00 0.000000000000D+00 1.862645149231D-09 4.200000000000D+01
    5.760180000000D+05 4.000000000000D+00
 2 22  5 28 18  0  0.0-6.530866958201D-04 2.273736754432D-13 0.000000000000D+00
    4.000000000000D+01-1.312500000000D+02 4.224104522337D-09 1.651986406196D+00
   -7.160007953644D-06 2.041423553601D-02 8.141621947289D-06 5.153675594330D+03
    5.832000000000D+05 2.831220626831D-07 2.525846895227D+00-4.209578037262D-07
    9.660421258864D-01 2.232187500000D+02-1.417036706821D+00-7.805682280855D-09
   -2.660825119761D-10 1.000000000000D+00 2.211000000000D+03 0.000000000000D+00
    2.000000000000D+00 0.000000000000D+00-1.769512891769D-08 4.000000000000D+01
    5.762280000000D+05 4.000000000000D+00
20 22  5 28 18  0  0.0 5.138185806572D-04-1.023181539495D-12 0.000000000000D+00
    6.300000000000D+01-6.812500000000D+00 4.711981987249D-09 2.547492574914D+00
   -3.781169652939D-07 4.781349329278D-03 1.046992838383D-05 5.153584499359D+03
    5.832000000000D+05-6.705522537231D-08-2.790112927243D+00 5.774199962616D-08
    9.434914441143D-01 1.710937500000D+02-3.121516301718D+00-7.950331163205D-09
    3.714440435639D-10 1.000000000000D+00 2.211000000000D+03 0.000000000000D+00
    2.000000000000D+00 0.000000000000D+00-8.381903171539D-09 6.300000000000D+01
    5.762760000000D+05 4.000000000000D+00
28 22  5 28 17 59 44.0 3.494145348668D-04-7.275957614183D-12 0.000000000000D+00
    1.200000000000D+01 1.315000000000D+02 4.209461055235D-09-2.119511325057D+00
    7.152557373047D-06 1.655746588949D-02 5.664303898811D-06 5.153685928345D+03
    5.831840000000D+05 1.229345798492D-07 6.019168786083D-01 3.129243850708D-07
    9.685614609983D-01 2.723437500000D+02-1.278206604721D+00-7.874613723555D-09
    4.243033882249D-10 1.000000000000D+00 2.211000000000D+03 0.000000000000D+00
    2.000000000000D+00 6.300000000000D+01-1.117587089539D-08 1.200000000000D+01
    5.789520000000D+05 4.000000000000D+00
 5 22  5 28 18  0  0.0-8.350145071745D-05-1.364242052659D-12 0.000000000000D+00
    2.300000000000D+01 7.812500000000D-01 4.382325398586D-09-2.138269723791D+00
    8.009374141693D-08 6.008666823618D-03 9.637326002121D-06 5.153727218628D+03
    5.832000000000D+05 8.940696716309D-08-2.674259393089D+00-1.490116119385D-08
    9.611205490887D-01 1.939687500000D+02 1.026999533304D+00-7.740679573232D-09
    4.785913638228D-10 1.000000000000D+00 2.211000000000D+03 0.000000000000D+00
    2.000000000000D+00 0.000000000000D+00-1.117587089539D-08 2.300000000000D+01
    5.809620000000D+05 4.000000000000D+00
17 22  5 28 18  0  0.0 6.182305514812D-04 4.547473508865D-12 0.000000000000D+00
    5.300000000000D+01-4.431250000000D+01 4.485186826034D-09-2.610571408115D+00
   -2.082437276840D-06 1.351647125557D-02 1.074746251106D-06 5.153556419373D+03
    5.832000000000D+05 1.098960638046D-07 1.618256114703D+00 1.955777406693D-07
    9.784805619858D-01 3.647500000000D+02-1.493111911133D+00-8.109980670390D-09
   -7.857470152314D-12 1.000000000000D+00 2.211000000000D+03 0.000000000000D+00
    2.000000000000D+00 0.000000000000D+00-1.117587089539D-08 5.300000000000D+01
    5.814180000000D+05 4.000000000000D+00
14 22  5 28 20  0  0.0-1.100725494325D-04-1.250555214938D-12 0.000000000000D+00
    2.400000000000D+01 1.218125000000D+02 4.558047003810D-09 1.238772992507D+00
    6.265938282013D-06 1.929508754984D-03 6.187707185745D-06 5.153664546967D+03
    5.904000000000D+05-1.862645149231D-08 5.469690113862D-01 9.126961231232D-08
    9.529298082772D-01 2.571562500000D+02 3.115691832362D+00-8.127124241632D-09
    3.150131215609D-10 1.000000000000D+00 2.211000000000D+03 0.000000000000D+00
    2.000000000000D+00 0.000000000000D+00-7.916241884232D-09 5.360000000000D+02
    5.832180000000D+05 4.000000000000D+00
30 22  5 28 20  0  0.0-5.295593291521D-04-1.364242052659D-12 0.000000000000D+00
    5.700000000000D+01 1.475000000000D+01 4.769127224720D-09 1.854460408234D+00
    7.897615432739D-07 5.862479563802D-03 1.063011586666D-05 5.153768568039D+03
    5.904000000000D+05-7.078051567078D-08-5.212401488644D-01 1.490116119385D-08
    9.360545288969D-01 1.638125000000D+02-2.686120620231D+00-8.031763126602D-09
   -5.221646073947D-10 1.000000000000D+00 2.211000000000D+03 0.000000000000D+00
    2.000000000000D+00 0.000000000000D+00 3.725290298462D-09 5.700000000000D+01
    5.832180000000D+05 4.000000000000D+00
 7 22  5 28 20  0  0.0 3.222022205591D-04-1.136868377216D-13 0.000000000000D+00
    1.020000000000D+02 5.843750000000D+00 4.419469802942D-09 1.879540884982D+00
    1.750886440277D-07 1.615116873290D-02 1.071207225323D-05 5.153668275833D+03
    5.904000000000D+05-2.980232238770D-07-5.328453872863D-01-2.030283212662D-07
    9.508969095188D-01 1.708125000000D+02-2.265794887977D+00-7.893900241202D-09
   -4.800199947595D-10 1.000000000000D+00 2.211000000000D+03 0.000000000000D+00
    2.000000000000D+00 0.000000000000D+00-1.117587089539D-08 1.020000000000D+02
    5.832180000000D+05 4.000000000000D+00
 9 22  5 28 20  0  0.0-3.331028856337D-04 3.069544618484D-12 0.000000000000D+00
    2.800000000000D+01-7.281250000000D+00 5.054139096609D-09-1.018685206636D+00
   -4.116445779800D-07 2.081348909996D-03 4.738569259644D-06 5.153550519943D+03
    5.904000000000D+05-3.352761268616D-08-1.604886127481D+00-1.862645149231D-09
    9.539270839206D-01 2.832812500000D+02 1.874562952191D+00-8.315703525287D-09
   -1.889364413897D-10 1.000000000000D+00 2.211000000000D+03 0.000000000000D+00
    2.000000000000D+00 0.000000000000D+00 1.396983861923D-09 2.800000000000D+01
    5.832180000000D+05 4.000000000000D+00
28 22  5 28 20  0  0.0 3.493619151413D-04-7.275957614183D-12 0.000000000000D+00
    1.300000000000D+01 1.184062500000D+02 4.320894268304D-09-1.067083396512D+00
    6.312504410744D-06 1.655683573335D-02 6.381422281265D-06 5.153683544159D+03
    5.904000000000D+05-2.514570951462D-07 6.018580517465D-01 1.173466444016D-07
    9.685630160802D-01 2.691562500000D+02-1.278129096396D+00-8.256772499145D-09
    4.818057834305D-10 1.000000000000D+00 2.211000000000D+03 0.000000000000D+00
    2.000000000000D+00 6.300000000000D+01-1.117587089539D-08 1.300000000000D+01
    5.832180000000D+05 4.000000000000D+00
20 22  5 28 20  0  0.0 5.138111300766D-04-1.023181539495D-12 0.000000000000D+00
    6.400000000000D+01-2.687500000000D+00 4.832701301407D-09-2.685397403272D+00
   -2.197921276093D-07 4.781395546161D-03 1.014024019241D-05 5.153584384918D+03
    5.904000000000D+05-1.322478055954D-07-2.790170361406D+00-1.490116119385D-08
    9.434939120571D-01 1.709375000000D+02-3.121573984578D+00-8.008547873879D-09
    3.882304570711D-10 1.000000000000D+00 2.211000000000D+03 0.000000000000D+00
    2.000000000000D+00 0.000000000000D+00-8.381903171539D-09 6.400000000000D+01
    5.832180000000D+05 4.000000000000D+00
